GLOBALSTAR M084         
1 38040U 11080A   24196.84658435 -.00000095  00000+0  49730-4 0  9991
2 38040  52.0027 355.4619 0000984  82.6541  68.9970 12.62264142580061
GLOBALSTAR M080         
1 38041U 11080B   24197.22032366 -.00000093  00000+0  57991-4 0  9990
2 38041  52.0078 355.8119 0000874  67.7757 103.3662 12.62262785580375
GLOBALSTAR M082         
1 38042U 11080C   24197.07518060 -.00000095  00000+0  47894-4 0  9997
2 38042  52.0094 311.6662 0001146 140.2888  30.7960 12.62271061581093
GLOBALSTAR M092         
1 38043U 11080D   24196.87539380 -.00000106  00000+0 -10724-4 0  9999
2 38043  52.0095  42.6308 0000958  77.7888  25.2769 12.62263373579356
GLOBALSTAR M090         
1 38044U 11080E   24196.78378549 -.00000097  00000+0  39281-4 0  9995
2 38044  51.9899 306.7969 0000827 135.1627  30.7171 12.62264626581004
GLOBALSTAR M086         
1 38045U 11080F   24196.72834625 -.00000086  00000+0  10167-3 0  9991
2 38045  51.9911 307.4893 0000263 266.9543 247.6788 12.62264295580945
GLOBALSTAR M097         
1 39072U 13005A   24196.80051354 -.00000092  00000+0  64984-4 0  9994
2 39072  52.0020 221.4771 0000292 207.0213 153.0638 12.62268873528202
GLOBALSTAR M093         
1 39073U 13005B   24196.77367620 -.00000088  00000+0  85451-4 0  9994
2 39073  51.9782 215.3985 0000400 225.0028 135.0806 12.62275883528150
